OBJECT_NAME,OBJECT_ID,EPOCH,MEAN_MOTION,ECCENTRICITY,INCLINATION,RA_OF_ASC_NODE,ARG_OF_PERICENTER,MEAN_ANOMALY,EPHEMERIS_TYPE,CLASSIFICATION_TYPE,NORAD_CAT_ID,ELEMENT_SET_NO,REV_AT_EPOCH,BSTAR,MEAN_MOTION_DOT,MEAN_MOTION_DDOT
2022-023F,2022-023F,2026-07-22T22:00:36.180288,15.18014983,.01335989,63.4454,152.0204,341.6043,18.0261,0,U,51951,999,24313,.4725649E-3,.11984E-3,0
MERIDIAN 10,2022-030A,2026-07-22T08:40:14.971296,2.00608412,.67937828,62.6770,136.9919,272.8361,17.5917,0,U,52145,999,3173,0,.125E-5,0
OMNI-L1,2022-033A,2026-07-22T16:10:12.395712,14.82862514,.00059234,97.8385,282.1623,155.4473,204.7024,0,U,52157,999,23271,.17930777E-3,.14E-4,0
ENMAP,2022-033C,2026-07-22T22:00:30.663648,14.74943149,.00012516,97.9782,285.6573,86.4093,273.7259,0,U,52159,999,23192,.130346E-4,.38E-6,0
ARCSAT-1,2022-033E,2026-07-22T05:15:04.120416,15.54419285,.00061717,97.2745,296.0322,78.3596,281.8351,0,U,52161,999,24114,.2823673E-3,.18464E-3,0
GLOBAL-18,2022-034B,2026-07-22T22:03:12.514176,15.47490847,.00046759,52.9813,85.7105,43.8520,316.2856,0,U,52196,999,24249,.50174981E-3,.25845E-3,0
GAOFEN-3 03,2022-035A,2026-07-22T23:01:24.816000,14.42217944,.00017839,98.4078,212.0215,85.9065,274.2328,0,U,52200,999,22600,-.42509431E-4,-.184E-5,0
DAQI-1,2022-039A,2026-07-22T23:26:32.507232,14.57695053,.00045213,98.1480,142.0897,128.2911,231.8695,0,U,52257,999,22715,.28075159E-4,.83E-6,0
BRO-6,2022-047AE,2026-07-22T22:13:07.633056,15.53063616,.00031288,97.3382,295.7304,267.9808,92.1087,0,U,52422,999,23669,.83843464E-3,.52576E-3,0
JILIN-1 GAOFEN 3D27,2022-048B,2026-07-22T17:54:20.453184,15.85394090,.00057144,97.5723,321.1806,231.3604,128.7155,0,U,52444,999,23509,.10011054E-2,.24425E-2,0
JILIN-1 GAOFEN 3D28,2022-048C,2026-07-22T21:39:41.427648,15.91445018,.00057474,97.5654,321.7169,236.7303,123.3420,0,U,52445,999,23518,.10345515E-2,.33071E-2,.43179644E-4
VIGORIDE-3,2022-057AE,2026-07-22T20:30:07.925760,15.27604415,.00081964,97.6646,344.7918,9.4707,350.6685,0,U,52760,999,23060,.2036927E-3,.5423E-4,0
ION SCV-006,2022-057AF,2026-07-22T21:36:25.657344,15.46052269,.00160714,97.6136,354.2650,349.3631,10.7275,0,U,52761,999,23163,.28206051E-3,.1376E-3,0
SHERPA-AC1,2022-057AH,2026-07-22T21:15:15.412320,15.36707970,.00065267,97.6725,354.6210,334.8147,25.2778,0,U,52763,999,23118,.21501912E-3,.7627E-4,0
OMNI-L2,2022-057AR,2026-07-22T14:00:15.292512,14.81449955,.00063192,97.4695,263.5611,193.9030,166.2011,0,U,52771,999,22563,.12409796E-3,.924E-5,0
STEP CUBE LAB-II,2022-065D,2026-07-22T21:32:31.000992,14.63350570,.00072092,98.2273,347.6989,274.0986,85.9392,0,U,52897,999,21672,.13596189E-3,.654E-5,0
RANDEV,2022-065E,2026-07-22T21:20:26.592288,14.63738798,.00065494,98.2260,348.0580,274.5491,85.4963,0,U,52898,999,21647,.10520994E-3,.5E-5,0
SNUGLITE-II,2022-065F,2026-07-22T15:07:52.217472,14.64403354,.0006134,98.2246,348.4076,272.4841,87.5659,0,U,52899,999,21618,.14013557E-3,.692E-5,0
MIMAN,2022-065G,2026-07-22T08:48:03.146112,14.61876479,.00062876,98.2306,345.6809,277.0565,82.9921,0,U,52900,999,21558,.84810284E-4,.376E-5,0
STARLINK-4362,2022-077A,2026-07-22T18:06:18.721440,15.05654193,.00015736,97.2868,20.7852,101.9772,258.1632,0,U,53043,999,22123,.2301562E-5,-.23E-6,0
LARES-2,2022-080A,2026-07-18T18:51:23.050944,6.38965084,.00054794,70.1539,294.4914,328.1411,31.8962,0,U,53105,999,9368,0,-.2E-6,0
GREENCUBE (IO-117),2022-080E,2026-07-22T16:03:56.210112,6.42583354,.00093274,70.1381,285.9076,282.2706,77.6909,0,U,53109,999,9434,0,-.3E-7,0
STARLINK-4410,2022-084R,2026-07-22T20:00:01.999872,15.36982476,.00012217,97.5979,266.2029,89.5188,139.3414,0,U,53204,999,585,-.85694347E-3,-.30921E-3,0
COSMOS 2558,2022-089A,2026-07-20T20:40:50.068704,15.82905343,.0004329,97.2232,307.4901,220.3966,139.6983,0,U,53323,999,22314,.5961E-3,.127495E-2,0
TECMS,2022-090A,2026-07-22T22:32:30.714432,15.21270591,.00052878,97.3120,271.0307,66.8029,293.3764,0,U,53346,999,22024,.18670603E-3,.4106E-4,0
DONGPO 02,2022-098J,2026-07-22T19:13:51.717792,15.83013375,.00042964,97.5558,338.3171,203.9609,156.1460,0,U,53452,999,22041,.84525748E-3,.182923E-2,0
DONGPO 01,2022-098K,2026-07-22T21:58:46.890336,15.79695461,.00026934,97.5620,338.8487,199.2419,160.8746,0,U,53453,999,22038,.84053949E-3,.155673E-2,0
STARLINK-4400,2022-099D,2026-07-22T14:25:01.261056,15.05667075,.00019506,97.2849,320.7202,128.1616,231.9788,0,U,53468,999,21627,.16977225E-3,.2395E-4,0
STARLINK-4621,2022-105AE,2026-07-22T04:54:48.209760,15.05656599,.00019183,97.2851,80.3627,94.7570,265.3877,0,U,53676,999,21347,.18142496E-4,.206E-5,0
