2022-023F               
1 51951U 22023F   26203.91708542  .00011984  00000+0  47256-3 0  9998
2 51951  63.4454 152.0204 0133598 341.6043  18.0261 15.18014983243134
MERIDIAN 10             
1 52145U 22030A   26203.36128439  .00000125  00000+0  00000+0 0  9999
2 52145  62.6770 136.9919 6793782 272.8361  17.5917  2.00608412 31733
OMNI-L1                 
1 52157U 22033A   26203.67375458  .00001400  00000+0  17931-3 0  9996
2 52157  97.8385 282.1623 0005923 155.4473 204.7024 14.82862514232719
ENMAP                   
1 52159U 22033C   26203.91702157  .00000038  00000+0  13035-4 0  9993
2 52159  97.9782 285.6573 0001251  86.4093 273.7259 14.74943149231929
ARCSAT-1                
1 52161U 22033E   26203.21879769  .00018464  00000+0  28237-3 0  9994
2 52161  97.2745 296.0322 0006171  78.3596 281.8351 15.54419285241142
GLOBAL-18               
1 52196U 22034B   26203.91889484  .00025845  00000+0  50175-3 0  9992
2 52196  52.9813  85.7105 0004675  43.8520 316.2856 15.47490847242494
GAOFEN-3 03             
1 52200U 22035A   26203.95931500 -.00000184  00000+0 -42509-4 0  9994
2 52200  98.4078 212.0215 0001783  85.9065 274.2328 14.42217944226008
DAQI-1                  
1 52257U 22039A   26203.97676513  .00000083  00000+0  28075-4 0  9990
2 52257  98.1480 142.0897 0004521 128.2911 231.8695 14.57695053227156
BRO-6                   
1 52422U 22047AE  26203.92578279  .00052576  00000+0  83843-3 0  9995
2 52422  97.3382 295.7304 0003128 267.9808  92.1087 15.53063616236692
JILIN-1 GAOFEN 3D27     
1 52444U 22048B   26203.74607006  .00244250  00000+0  10011-2 0  9999
2 52444  97.5723 321.1806 0005714 231.3604 128.7155 15.85394090235093
JILIN-1 GAOFEN 3D28     
1 52445U 22048C   26203.90256282  .00330710  43180-4  10346-2 0  9993
2 52445  97.5654 321.7169 0005747 236.7303 123.3420 15.91445018235186
VIGORIDE-3              
1 52760U 22057AE  26203.85425840  .00005423  00000+0  20369-3 0  9991
2 52760  97.6646 344.7918 0008196   9.4707 350.6685 15.27604415230606
ION SCV-006             
1 52761U 22057AF  26203.90029696  .00013760  00000+0  28206-3 0  9998
2 52761  97.6136 354.2650 0016071 349.3631  10.7275 15.46052269231631
SHERPA-AC1              
1 52763U 22057AH  26203.88559505  .00007627  00000+0  21502-3 0  9991
2 52763  97.6725 354.6210 0006526 334.8147  25.2778 15.36707970231182
OMNI-L2                 
1 52771U 22057AR  26203.58351033  .00000924  00000+0  12410-3 0  9994
2 52771  97.4695 263.5611 0006319 193.9030 166.2011 14.81449955225637
STEP CUBE LAB-II        
1 52897U 22065D   26203.89758103  .00000654  00000+0  13596-3 0  9991
2 52897  98.2273 347.6989 0007209 274.0986  85.9392 14.63350570216722
RANDEV                  
1 52898U 22065E   26203.88919667  .00000500  00000+0  10521-3 0  9990
2 52898  98.2260 348.0580 0006549 274.5491  85.4963 14.63738798216476
SNUGLITE-II             
1 52899U 22065F   26203.63046548  .00000692  00000+0  14014-3 0  9996
2 52899  98.2246 348.4076 0006134 272.4841  87.5659 14.64403354216182
MIMAN                   
1 52900U 22065G   26203.36670308  .00000376  00000+0  84810-4 0  9997
2 52900  98.2306 345.6809 0006287 277.0565  82.9921 14.61876479215581
STARLINK-4362           
1 53043U 22077A   26203.75438335 -.00000023  00000+0  23016-5 0  9996
2 53043  97.2868  20.7852 0001573 101.9772 258.1632 15.05654193221230
LARES-2                 
1 53105U 22080A   26199.78568346 -.00000020  00000+0  00000+0 0  9991
2 53105  70.1539 294.4914 0005479 328.1411  31.8962  6.38965084 93683
GREENCUBE (IO-117)      
1 53109U 22080E   26203.66940058 -.00000003  00000+0  00000+0 0  9993
2 53109  70.1381 285.9076 0009327 282.2706  77.6909  6.42583354 94343
STARLINK-4410           
1 53204U 22084R   26203.83335648 -.00030921  00000+0 -85694-3 0  9994
2 53204  97.5979 266.2029 0001221  89.5188 139.3414 15.36982476  5858
COSMOS 2558             
1 53323U 22089A   26201.86169061  .00127495  00000+0  59610-3 0  9996
2 53323  97.2232 307.4901 0004329 220.3966 139.6983 15.82905343223144
TECMS                   
1 53346U 22090A   26203.93924438  .00004106  00000+0  18671-3 0  9995
2 53346  97.3120 271.0307 0005287  66.8029 293.3764 15.21270591220245
DONGPO 02               
1 53452U 22098J   26203.80129303  .00182923  00000+0  84526-3 0  9991
2 53452  97.5558 338.3171 0004296 203.9609 156.1460 15.83013375220414
DONGPO 01               
1 53453U 22098K   26203.91582049  .00155673  00000+0  84054-3 0  9992
2 53453  97.5620 338.8487 0002693 199.2419 160.8746 15.79695461220387
STARLINK-4400           
1 53468U 22099D   26203.60070904  .00002395  00000+0  16977-3 0  9998
2 53468  97.2849 320.7202 0001950 128.1616 231.9788 15.05667075216271
STARLINK-4621           
1 53676U 22105AE  26203.20472465  .00000206  00000+0  18142-4 0  9997
2 53676  97.2851  80.3627 0001918  94.7570 265.3877 15.05656599213474
